[{"OBJECT_NAME":"APRIZESAT 6","OBJECT_ID":"2011-044F","EPOCH":"2026-03-09T16:26:10.012704","MEAN_MOTION":14.76752527,"ECCENTRICITY":0.00442555,"INCLINATION":98.2416,"RA_OF_ASC_NODE":337.1377,"ARG_OF_PERICENTER":45.5193,"MEAN_ANOMALY":11.155,"EPHEMERIS_TYPE":0,"CLASSIFICATION_TYPE":"U","NORAD_CAT_ID":37793,"ELEMENT_SET_NO":999,"REV_AT_EPOCH":78246,"BSTAR":0.0001848407,"MEAN_MOTION_DOT":1.26e-5,"MEAN_MOTION_DDOT":0},{"OBJECT_NAME":"DMSP 5D-2 F11 DEB","OBJECT_ID":"1991-082BJ","EPOCH":"2026-03-08T17:34:29.811072","MEAN_MOTION":14.66243405,"ECCENTRICITY":0.00571267,"INCLINATION":98.6156,"RA_OF_ASC_NODE":170.0892,"ARG_OF_PERICENTER":204.4643,"MEAN_ANOMALY":155.3846,"EPHEMERIS_TYPE":0,"CLASSIFICATION_TYPE":"U","NORAD_CAT_ID":28345,"ELEMENT_SET_NO":999,"REV_AT_EPOCH":11479,"BSTAR":0.0098886287,"MEAN_MOTION_DOT":0.00056198,"MEAN_MOTION_DDOT":0}]
